{
    "links": {
        "self": "http://www.neowsapp.com/rest/v1/neo/3802050?api_key=iIulBulltgU6a56xZRHN4H3l9WmuAYTsLGpBGhQ2"
    },
    "id": "3802050",
    "neo_reference_id": "3802050",
    "name": "(2018 FK3)",
    "designation": "2018 FK3",
    "nasa_jpl_url": "http://ssd.jpl.nasa.gov/sbdb.cgi?sstr=3802050",
    "absolute_magnitude_h": 22.1,
    "estimated_diameter": {
        "kilometers": {
            "estimated_diameter_min": 0.1010543415,
            "estimated_diameter_max": 0.2259643771
        },
        "meters": {
            "estimated_diameter_min": 101.054341542,
            "estimated_diameter_max": 225.9643771094
        },
        "miles": {
            "estimated_diameter_min": 0.0627922373,
            "estimated_diameter_max": 0.140407711
        },
        "feet": {
            "estimated_diameter_min": 331.5431259047,
            "estimated_diameter_max": 741.3529669956
        }
    },
    "is_potentially_hazardous_asteroid": false,
    "close_approach_data": [
        {
            "close_approach_date": "2018-03-26",
            "close_approach_date_full": "2018-Mar-26 19:59",
            "epoch_date_close_approach": 1522094340000,
            "relative_velocity": {
                "kilometers_per_second": "19.3123586376",
                "kilometers_per_hour": "69524.4910952466",
                "miles_per_hour": "43199.815036377"
            },
            "miss_distance": {
                "astronomical": "0.4175390155",
                "lunar": "162.4226770295",
                "kilometers": "62462947.360696985",
                "miles": "38812675.722248993"
            },
            "orbiting_body": "Earth"
        },
        {
            "close_approach_date": "2018-09-07",
            "close_approach_date_full": "2018-Sep-07 01:09",
            "epoch_date_close_approach": 1536282540000,
            "relative_velocity": {
                "kilometers_per_second": "23.7575998599",
                "kilometers_per_hour": "85527.359495527",
                "miles_per_hour": "53143.3751265401"
            },
            "miss_distance": {
                "astronomical": "0.4343056351",
                "lunar": "168.9448920539",
                "kilometers": "64971197.939957237",
                "miles": "40371230.3610623906"
            },
            "orbiting_body": "Earth"
        },
        {
            "close_approach_date": "2018-10-16",
            "close_approach_date_full": "2018-Oct-16 10:56",
            "epoch_date_close_approach": 1539687360000,
            "relative_velocity": {
                "kilometers_per_second": "19.504474243",
                "kilometers_per_hour": "70216.1072748263",
                "miles_per_hour": "43629.558434183"
            },
            "miss_distance": {
                "astronomical": "0.0667819026",
                "lunar": "25.9781601114",
                "kilometers": "9990430.383507462",
                "miles": "6207765.5823964956"
            },
            "orbiting_body": "Mars"
        }
    ],
    "orbital_data": {
        "orbit_id": "2",
        "orbit_determination_date": "2018-03-23 06:25:38",
        "first_observation_date": "2018-03-19",
        "last_observation_date": "2018-03-22",
        "data_arc_in_days": 3,
        "observations_used": 16,
        "orbit_uncertainty": "9",
        "minimum_orbit_intersection": ".342611",
        "jupiter_tisserand_invariant": "3.978",
        "epoch_osculation": "2458198.5",
        "eccentricity": ".3667880076570691",
        "semi_major_axis": "1.645169839989557",
        "inclination": "38.826003593557",
        "ascending_node_longitude": "174.5306712416758",
        "orbital_period": "770.7517788140329",
        "perihelion_distance": "1.041741272122288",
        "perihelion_argument": "88.08569804180202",
        "aphelion_distance": "2.248598407856826",
        "perihelion_time": "2458299.804511910287",
        "mean_anomaly": "312.683048823034",
        "mean_motion": ".4670764439284685",
        "equinox": "J2000",
        "orbit_class": {
            "orbit_class_type": "AMO",
            "orbit_class_description": "Near-Earth asteroid orbits similar to that of 1221 Amor",
            "orbit_class_range": "1.017 AU < q (perihelion) < 1.3 AU"
        }
    },
    "is_sentry_object": false
}